     2              NAVIGATION DATA                         RINEX VERSION / TYPE
CCRINEXN V1.6.0 UX  CDDIS               01-JUN-24 06:09     PGM / RUN BY / DATE 
IGS BROADCAST EPHEMERIS FILE                                COMMENT             
    0.2142D-07  0.2235D-07 -0.1192D-06 -0.5960D-07          ION ALPHA           
    0.1290D+06  0.1311D+06 -0.1966D+06 -0.6554D+05          ION BETA            
   -0.186264514923D-08-0.621724893790D-14   147456     2317 DELTA-UTC: A0,A1,T,W
    18                                                      LEAP SECONDS        
                                                            END OF HEADER       
24 24  6  1  2  0  0.0-0.474415253848D-03-0.295585778076D-11 0.000000000000D+00
    0.140000000000D+02-0.286562500000D+02 0.519950229443D-08 0.779107459124D+00
   -0.121258199215D-05 0.153079313459D-01 0.113639980555D-04 0.515371780968D+04
    0.525600000000D+06-0.191852450371D-06-0.121913996626D+01 0.987201929092D-07
    0.933664834659D+00 0.149343750000D+03 0.979743696658D+00-0.853856995143D-08
   -0.382515933324D-09 0.100000000000D+01 0.231600000000D+04 0.000000000000D+00
    0.200000000000D+01 0.000000000000D+00 0.232830643654D-08 0.140000000000D+02
    0.518418000000D+06 0.400000000000D+01 0.000000000000D+00 0.000000000000D+00
25 24  6  1  2  0  0.0 0.496667344123D-03 0.568434188608D-12 0.000000000000D+00
    0.120000000000D+02 0.773437500000D+02 0.486555981295D-08-0.997270128190D+00
    0.409781932831D-05 0.116258866619D-01 0.751204788685D-05 0.515378576279D+04
    0.525600000000D+06 0.149011611938D-07-0.931017552732D-01 0.268220901489D-06
    0.950677865332D+00 0.229312500000D+03 0.109023024081D+01-0.840820737844D-08
    0.101075638777D-09 0.100000000000D+01 0.231600000000D+04 0.000000000000D+00
    0.200000000000D+01 0.000000000000D+00 0.512227416039D-08 0.120000000000D+02
    0.523609000000D+06 0.400000000000D+01 0.000000000000D+00 0.000000000000D+00
26 24  6  1  2  0  0.0 0.144217163324D-03-0.602540239925D-11 0.000000000000D+00
    0.360000000000D+02 0.796875000000D+02 0.513485674454D-08-0.180449018415D+01
    0.410526990890D-05 0.886557553895D-02 0.742822885513D-05 0.515364621162D+04
    0.525600000000D+06 0.130385160446D-07-0.155635609065D+00-0.115483999252D-06
    0.931422207576D+00 0.221875000000D+03 0.541785449367D+00-0.834034740895D-08
    0.200365488884D-09 0.100000000000D+01 0.231600000000D+04 0.000000000000D+00
    0.200000000000D+01 0.000000000000D+00 0.651925802231D-08 0.360000000000D+02
    0.522516000000D+06 0.400000000000D+01 0.000000000000D+00 0.000000000000D+00
27 24  6  1  2  0  0.0-0.264868140221D-04-0.159161572810D-11 0.000000000000D+00
    0.320000000000D+02-0.163437500000D+02 0.446982904346D-08 0.268155182028D+01
   -0.957399606705D-06 0.125459721312D-01 0.488944351673D-05 0.515368106079D+04
    0.525600000000D+06-0.242143869400D-07 0.963970192085D+00-0.154599547386D-06
    0.962128964853D+00 0.286062500000D+03 0.794893528700D+00-0.809962309610D-08
   -0.199294015681D-09 0.100000000000D+01 0.231600000000D+04 0.000000000000D+00
    0.200000000000D+01 0.000000000000D+00 0.186264514923D-08 0.320000000000D+02
    0.518418000000D+06 0.400000000000D+01 0.000000000000D+00 0.000000000000D+00
28 24  6  1  2  0  0.0-0.268749427050D-03-0.169393388205D-10 0.000000000000D+00
    0.480000000000D+02-0.156250000000D+02 0.437053919336D-08-0.161710214005D+01
   -0.942498445511D-06 0.327500514686D-03 0.108592212200D-04 0.515366210365D+04
    0.525600000000D+06-0.931322574616D-08-0.115504682466D+01 0.260770320892D-07
    0.961099167078D+00 0.170218750000D+03 0.168461941697D+01-0.791961559806D-08
   -0.272868508926D-09 0.100000000000D+01 0.231600000000D+04 0.000000000000D+00
    0.200000000000D+01 0.000000000000D+00-0.931322574616D-08 0.816000000000D+03
    0.522108000000D+06 0.400000000000D+01 0.000000000000D+00 0.000000000000D+00
29 24  6  1  2  0  0.0-0.596158206463D-03 0.159161572810D-11 0.000000000000D+00
    0.136000000000D+03-0.210312500000D+02 0.439446876155D-08 0.262971888162D+01
   -0.105798244476D-05 0.294070795644D-02 0.504776835442D-05 0.515358533096D+04
    0.525600000000D+06 0.000000000000D+00 0.104729627671D+01-0.502914190292D-07
    0.971264246037D+00 0.288656250000D+03 0.255099594626D+01-0.814533928608D-08
   -0.283226083218D-09 0.100000000000D+01 0.231600000000D+04 0.000000000000D+00
    0.200000000000D+01 0.000000000000D+00-0.977888703346D-08 0.136000000000D+03
    0.524928000000D+06 0.400000000000D+01 0.000000000000D+00 0.000000000000D+00
30 24  6  1  2  0  0.0-0.381488818675D-03 0.602540239925D-11 0.000000000000D+00
    0.730000000000D+02-0.921875000000D+01 0.503663836763D-08-0.390613392078D+00
   -0.610947608948D-06 0.716239935719D-02 0.118874013424D-04 0.515363945198D+04
    0.525600000000D+06 0.745058059692D-08-0.112144863320D+01 0.102445483208D-06
    0.935162552634D+00 0.133281250000D+03-0.246183105276D+01-0.835891961113D-08
   -0.231438211759D-09 0.100000000000D+01 0.231600000000D+04 0.000000000000D+00
    0.200000000000D+01 0.000000000000D+00 0.419095158577D-08 0.730000000000D+02
    0.518418000000D+06 0.400000000000D+01 0.000000000000D+00 0.000000000000D+00
31 24  6  1  2  0  0.0-0.227614305913D-03 0.227373675443D-12 0.000000000000D+00
    0.960000000000D+02-0.259375000000D+01 0.456804742037D-08-0.111991002521D+01
   -0.143423676491D-06 0.104705147678D-01 0.109598040581D-04 0.515373335075D+04
    0.525600000000D+06 0.260770320892D-06-0.110046906693D+01 0.614672899246D-07
    0.954005850356D+00 0.164593750000D+03 0.678925954231D+00-0.799640451092D-08
   -0.213580325049D-09 0.100000000000D+01 0.231600000000D+04 0.000000000000D+00
    0.200000000000D+01 0.000000000000D+00-0.135041773319D-07 0.960000000000D+02
    0.524988000000D+06 0.400000000000D+01 0.000000000000D+00 0.000000000000D+00
32 24  6  1  2  0  0.0-0.617384910583D-03 0.795807864051D-12 0.000000000000D+00
    0.114000000000D+03-0.560937500000D+02 0.486091676241D-08-0.294452136016D+01
   -0.282004475594D-05 0.778072269168D-02 0.579096376896D-05 0.515367915344D+04
    0.525600000000D+06 0.115483999252D-06-0.218002655817D+01-0.216066837311D-06
    0.961814980209D+00 0.265468750000D+03-0.213072983523D+01-0.823069998455D-08
   -0.162149611325D-09 0.100000000000D+01 0.231600000000D+04 0.000000000000D+00
    0.200000000000D+01 0.000000000000D+00 0.931322574616D-09 0.114000000000D+03
    0.518418000000D+06 0.400000000000D+01 0.000000000000D+00 0.000000000000D+00
18 24  6  1  3 44 32.0-0.618882477284D-03-0.534328137292D-11 0.000000000000D+00
    0.236000000000D+03-0.275625000000D+02 0.394802159380D-08 0.157224003676D+01
   -0.139698386192D-05 0.414941029158D-02 0.103320926428D-04 0.515361423874D+04
    0.531872000000D+06-0.540167093277D-07 0.203761248086D+01 0.428408384323D-07
    0.974431658247D+00 0.187437500000D+03-0.305429782290D+01-0.784032658107D-08
   -0.507163982558D-10 0.100000000000D+01 0.231600000000D+04 0.000000000000D+00
    0.200000000000D+01 0.000000000000D+00-0.838190317154D-08 0.748000000000D+03
    0.524718000000D+06 0.400000000000D+01 0.000000000000D+00 0.000000000000D+00
 3 24  6  1  3 59 44.0 0.391913577914D-03 0.185309545486D-10 0.000000000000D+00
    0.290000000000D+02 0.298437500000D+02 0.418553148704D-08 0.358682524933D+00
    0.133737921715D-05 0.554136803839D-02 0.697933137417D-05 0.515371702385D+04
    0.532784000000D+06-0.316649675369D-07 0.306981428252D+01 0.875443220139D-07
    0.984792161118D+00 0.259812500000D+03 0.109096468566D+01-0.806283584948D-08
    0.419660337680D-09 0.100000000000D+01 0.231600000000D+04 0.000000000000D+00
    0.200000000000D+01 0.000000000000D+00 0.139698386192D-08 0.290000000000D+02
    0.530448000000D+06 0.400000000000D+01 0.000000000000D+00 0.000000000000D+00
17 24  6  1  3 59 44.0 0.700491946191D-03-0.454747350886D-11 0.000000000000D+00
    0.600000000000D+01-0.192187500000D+02 0.439268297288D-08-0.261744628630D+01
   -0.935047864914D-06 0.133994875941D-01 0.540539622307D-05 0.515373258591D+04
    0.532784000000D+06 0.141561031342D-06 0.103221927329D+01 0.987201929092D-07
    0.968846048304D+00 0.279312500000D+03-0.132032147075D+01-0.794640242813D-08
   -0.316084594764D-09 0.100000000000D+01 0.231600000000D+04 0.000000000000D+00
    0.200000000000D+01 0.000000000000D+00-0.111758708954D-07 0.600000000000D+01
    0.527268000000D+06 0.400000000000D+01 0.000000000000D+00 0.000000000000D+00
22 24  6  1  3 59 44.0-0.213799066842D-04-0.511590769747D-11 0.000000000000D+00
    0.400000000000D+01 0.763437500000D+02 0.459947730098D-08-0.209647456388D+01
    0.398233532906D-05 0.142737881979D-01 0.657141208649D-05 0.515370184135D+04
    0.532784000000D+06 0.279396772385D-07 0.145695815101D-01 0.318512320519D-06
    0.961556824907D+00 0.254531250000D+03-0.113505055292D+01-0.812748139937D-08
    0.582167106740D-10 0.100000000000D+01 0.231600000000D+04 0.000000000000D+00
    0.200000000000D+01 0.000000000000D+00-0.111758708954D-07 0.400000000000D+01
    0.530802000000D+06 0.400000000000D+01 0.000000000000D+00 0.000000000000D+00
29 24  6  1  3 59 44.0-0.596146564931D-03 0.159161572810D-11 0.000000000000D+00
    0.700000000000D+01-0.209375000000D+02 0.445804283824D-08-0.260560198512D+01
   -0.109151005745D-05 0.294082693290D-02 0.511482357979D-05 0.515358509827D+04
    0.532784000000D+06 0.298023223877D-07 0.104723781412D+01 0.521540641785D-07
    0.971261668376D+00 0.286937500000D+03 0.255103163707D+01-0.823141430002D-08
   -0.333228166005D-09 0.100000000000D+01 0.231600000000D+04 0.000000000000D+00
    0.200000000000D+01 0.000000000000D+00-0.977888703346D-08 0.700000000000D+01
    0.527706000000D+06 0.400000000000D+01 0.000000000000D+00 0.000000000000D+00
